#dP2024  3  4 12  0  0.00000000      96 __u+U IGS20 EXT  IAC
## 2304 129600.00000000   900.00000000 60373 0.5000000000000
+  119   C06C07C08C09C10C11C12C13C14C16C19C20C21C22C23C24C25
+        C26C27C28C29C30C32C33C34C35C36C37C38C39C40C41C42C43
+        C44C45C46E02E03E04E05E07E08E09E10E11E12E13E14E15E18
+        E19E21E24E25E26E27E30E31E33E34E36G01G02G03G04G05G06
+        G07G08G09G10G11G12G13G14G15G16G17G18G19G20G21G22G23
+        G24G25G26G27G28G29G30G31G32J02J03J04R01R02R03R04R05
+        R07R08R09R11R12R13R14R15R16R17R18R19R20R21R22R24R26
++         9  9 10  8  8  9  9 10  8  9 10  9  8  9  8  9  7
++         8  9  9 10 10  8  9  9  8  7 10  9 10  8  8  7 10
++         9  9  9  7  8  7  9  8  7  8  8  9  8 10  7  9  7
++         8  7  7  8 10  7  8  8  9  9  9  7  8  6  7  8  7
++         8  8  7  8  8  8  8  7  8  7  8  7  8  7  8  7  8
++        10  8  8  7  7  7  8  8  7 11 10  0  8  9  8  9  9
++         7  9  8  8  8  8  9  9  8  9  7  8 10 10  9  7  8
%c M  cc GPS ccc cccc cccc cccc cccc ccccc ccccc ccccc ccccc
%c cc cc ccc ccc cccc cccc cccc cccc ccccc ccccc ccccc ccccc
%f  0.0000000  0.000000000  0.00000000000  0.000000000000000
%f  0.0000000  0.000000000  0.00000000000  0.000000000000000
%i    0    0    0    0      0      0      0      0         0
%i    0    0    0    0      0      0      0      0         0
/* IAC                                ULTRA-RAPID PREDICTION
/* S/V CLOCKS ARE ALIGNED TO GNSS TIME                      
/* G:C1WC2W R:C1PC2P E:C1XC5X C:C2IC6I J:C1CC2S             
/* PCV:IGS20_2290 OL/AL:FES2004  NONE     YN ORB:CoN CLK:CoN
*  2024 03 04 23 15  0.00000000
PC06  -6432.872140  23814.435621  34254.237268    251.154024
PC07 -17316.505103  36606.394169 -12019.126947   -903.582750
PC08  -2075.747716  37095.189505 -19724.496399    -11.106742
PC09   2348.895550  26365.965934  33385.979061   -576.311528
PC10 -10923.461593  36824.485929 -17658.638586     58.851580
PC11  20643.444587 -10182.357470  15842.779528    443.180164
PC12  27843.950077   1119.101973  -1521.789782   -206.246224
PC13   3665.646964  40068.070375 -11940.864790    422.468261
PC14  17126.747928 -20709.015917   7423.863719    332.125258
PC16 -10094.593682  22092.548920  34723.167458   -377.098799
PC19 -12316.508225  24988.770649   1887.395871   -921.592816
PC20 -19031.307795  14755.432268 -14113.646360   -224.684629
PC21  14757.928324   5529.223910  23048.491677   -961.448686
PC22   1821.992544  21485.102237  17734.071002    -86.671047
PC23 -10323.314748 -25253.768359  -5885.414874   -777.671027
PC24  17197.592331  -2143.456802 -21888.688624    942.223790
PC25   3998.339171 -19687.252059 -19391.884587    341.540024
PC26  19974.037711  15490.507686 -11808.428805   -258.174698
PC27 -25259.485216  -6585.106908   9826.434262    280.095019
PC28 -11543.120441 -14479.181442  20880.050083    213.422974
PC29 -11672.689879  14986.035464 -20446.566474    250.225128
PC30 -26478.086122   5911.829214  -6486.630213    -33.514288
PC32 -14773.209903  -5455.254375 -23018.190240   -577.569215
PC33  12229.484660 -25010.932910  -1738.369553   -954.364477
PC34  25888.199479  -6849.877970   7885.142711    383.050618
PC35  11967.792068  14157.416912 -20884.887883    418.834740
PC36  -4807.095498  19286.175410  19598.127352      7.169962
PC37 -19555.792778 -16316.395248  11438.628579   -941.414597
PC38  -7497.036023  32880.590425 -25167.376666    140.714594
PC39 -16425.775176  19778.629613  33435.984487     -7.431007
PC40 -24886.999504  32375.178451 -11050.429990    -59.317117
PC41  -1247.644663 -21947.701897 -17121.830252   -900.236520
PC42  19163.371138 -13214.956260  15416.120305   -449.264263
PC43  12705.365351 -14822.011632  19938.801602     62.868776
PC44  25436.246966   5798.461044  -9971.199915    403.504932
PC45  10390.583653  25237.024088   5750.841079    -73.860320
PC46 -16716.925612   2905.478637  22148.886016   -128.990197
PE02   1912.809695 -29541.245168   -700.001095    108.552589
PE03   6573.676372 -19920.314016 -20878.698362    -98.052804
PE04  14382.704884  10961.534533  23445.298365   -342.051863
PE05  23361.226149 -17100.782941  -6155.383966   4726.007839
PE07 -26501.081954   3966.040870 -12575.021203   -107.132997
PE08 -13645.066352 -11315.121395 -23702.645222   -233.790302
PE09  26421.318800  -3927.337690  12746.714068   -358.771429
PE10  25760.405103  14366.193317   2513.071482   -606.802229
PE11  25930.289201   6924.192480  12501.175179   3201.262986
PE12  21731.671502  18965.034144  -6713.402056   -934.025260
PE13 -26029.989301  -7431.263638 -11951.244095    -20.409901
PE14   8976.964471 -17078.466225  13646.568532     57.267987
PE15 -21400.376362 -19102.822410   7276.756366    -89.373229
PE18 -13977.278952  23010.402042 -17843.870110    398.501952
PE19  -8993.544772  20074.543900  19817.259228   -494.471455
PE21 -12821.751589  20375.484647  17210.422532   -582.261682
PE24  16824.421351   1545.657719 -24326.644698   -633.157479
PE25  13000.454138 -20038.084003 -17491.300494      1.697782
PE26 -14911.563776   8988.184835 -23929.586112    387.046061
PE27 -16786.126030  -1096.511353  24349.349157   -290.546938
PE30 -10654.363153 -21867.969739  16859.365977    -61.580156
PE31  10811.377036  21642.438544 -17052.012026    -17.479463
PE33   3746.430712  19231.302069 -22183.846023      8.538847
PE34  -4343.800034 -19395.512616  21932.165516    -98.155186
PE36  15389.276204  -8372.173433  23866.482495   -194.712325
PG01  23549.901609  11915.103463   3975.839126    172.336249
PG02  21961.320400  14362.882444  -4439.103615   -475.519487
PG03  11943.553693  14781.779605  18464.327132    232.479787
PG04  17405.436134   6119.858223  19171.350338    307.087536
PG05  -6646.414870 -24174.184936  -8797.171030   -164.179124
PG06   8437.318639 -11942.071596  22241.126704    381.619891
PG07  22898.574891   3049.300205 -13019.463887    -76.772132
PG08  10091.462265  11850.552631 -21647.003779     31.033534
PG09  23960.462328  -5907.491958   9817.369517    113.445180
PG10 -10725.713499  18392.223016 -15461.569181      0.773546
PG11  -3856.749996 -18329.554333  18873.132232   -596.467047
PG12 -10916.216001 -16196.819863  17741.638431   -484.086091
PG13    324.135471 -15823.350284 -21497.082965    631.252397
PG14  13365.003485 -14677.000112 -17530.314030    342.157267
PG15 -11420.661438 -11368.024277 -21616.400751    134.253667
PG16    206.157451  26001.436461  -4368.654213   -348.599073
PG17  22860.239954 -13352.607129   3424.177044    714.855484
PG18 -22050.924663  -2086.799358 -14779.654307   -568.951242
PG19  17540.062081 -15878.642387  11504.187670    449.439348
PG20   -727.691247 -26246.668397   4604.825009    385.141355
PG21  19154.433004  16496.925256  -9156.569511    132.603198
PG22  10357.818846 -21652.442577 -11259.131657     21.084255
PG23 -14432.681204   5841.808244 -21466.163744    169.857587
PG24 -20360.585308 -15928.709408  -7386.390124   -441.563790
PG25 -15014.041788  -4829.329882  21061.497280    490.415678
PG26  -4538.139805  24692.931490   7924.987245    183.290644
PG27  -3041.148582  17504.362081 -19884.110866     -9.278433
PG28 -11007.076055  11011.695126  21497.411011   -152.807934
PG29 -23936.209777   2364.440422  11326.805202   -605.607864
PG30  16478.350450  -6867.137289 -19611.923337   -424.195716
PG31  -1511.117953  16336.013907  20595.404246   -227.927917
PG32 -20299.197705  16010.835132   5790.804529   -614.592283
PJ02 -30100.430847  25394.937167  20139.409513     -2.581417
PJ03 -28607.520779  15966.797125 -21923.776784     -0.219536
PJ04      0.000000      0.000000      0.000000     50.757338
PR01  13978.150745 -21002.499112  -3713.553779     78.823880
PR02   2972.608028 -17139.027905 -18634.590493    -22.550669
PR03 -10612.891740  -3942.582778 -22800.020451     95.745822
PR04 -17884.721167  11043.251969 -14406.477546    226.157764
PR05 -15695.892585  20015.359858   1770.772537    127.900968
PR07  11263.942343   3096.280970  22727.918295     77.221117
PR08  17929.996702 -11280.784067  14300.714130    -74.638808
PR09   8190.581570  23976.843129   3314.413792    173.518801
PR11  12086.462545   1654.595515 -22398.076181     32.323751
PR12   2875.839448 -17258.312819 -18550.578996     37.432757
PR13  -6590.926468 -23967.346631  -5758.929761    -44.982006
PR14 -13663.330845 -16843.316720  13417.777463     26.167761
PR15 -11720.668385    -69.422763  22667.547994     81.632820
PR16  -2848.243937  17025.969556  18796.098434     23.766683
PR17 -22645.750205  -7885.347772   8753.010633     66.289584
PR18 -24233.545517   -804.051899  -7813.040572    130.506890
PR19 -15229.627943   5716.219516 -19645.618815   -268.163512
PR20   6928.606538  11387.351558 -21750.200943   -109.252470
PR21  22649.436385   7966.463075  -8587.595566    -81.968380
PR22  23937.129009    755.716540   8834.900756    111.171239
PR24  -7874.913636 -11542.694156  21358.876970    -46.478518
PR26  17660.639764 -10592.115550  15061.727268   -195.266323
EOF
